*******************************************************************************
Ephemeris / WWW_USER Thu Dec  5 18:34:52 2024 Pasadena, USA      / Horizons    
*******************************************************************************
Target body name: Titan (606)                     {source: sat441l}
Center body name: Earth (399)                     {source: DE441}
Center-site name: Mauna Kea
*******************************************************************************
Start time      : A.D. 2018-Oct-27 04:00:00.0000 UT      
Stop  time      : A.D. 2018-Oct-27 16:11:00.0000 UT      
Step-size       : 1 minutes
*******************************************************************************
Target pole/equ : IAU_TITAN                       {West-longitude positive}
Target radii    : 2575.15, 2574.78, 2574.47 km    {Equator_a, b, pole_c}       
Center geodetic : 204.5278, 19.8260847, 4.21024   {E-lon(deg),Lat(deg),Alt(km)}
Center cylindric: 204.5278, 6006.35451, 2151.0229 {E-lon(deg),Dxy(km),Dz(km)}
Center pole/equ : ITRF93                          {East-longitude positive}
Center radii    : 6378.137, 6378.137, 6356.752 km {Equator_a, b, pole_c}       
Target primary  : Saturn
Vis. interferer : MOON (R_eq= 1737.400) km        {source: DE441}
Rel. light bend : Sun                             {source: DE441}
Rel. lght bnd GM: 1.3271E+11 km^3/s^2                                          
Atmos refraction: NO (AIRLESS)
RA format       : HMS
Time format     : CAL 
Calendar mode   : Mixed Julian/Gregorian
RTS-only print  : NO       
EOP file        : eop.241205.p250303                                           
EOP coverage    : DATA-BASED 1962-JAN-20 TO 2024-DEC-05. PREDICTS-> 2025-MAR-02
Units conversion: 1 au= 149597870.700 km, c= 299792.458 km/s, 1 day= 86400.0 s 
Table cut-offs 1: Elevation (-90.0deg=NO ),Airmass (>38.000=NO), Daylight (YES)
Table cut-offs 2: Solar elongation (  0.0,180.0=NO ),Local Hour Angle( 0.0=NO )
Table cut-offs 3: RA/DEC angular rate (     0.0=NO )                           
*******************************************************************************
 Date__(UT)__HR:MN     R.A._________(ICRF)_________DEC
******************************************************
$$SOE
 2018-Oct-27 15:45 Nm  18 18 37.774815 -22 46 44.77896
 2018-Oct-27 15:46 Nm  18 18 37.788330 -22 46 44.75919
 2018-Oct-27 15:47 Nm  18 18 37.801845 -22 46 44.73943
 2018-Oct-27 15:48 Nm  18 18 37.815360 -22 46 44.71967
 2018-Oct-27 15:49 Nm  18 18 37.828876 -22 46 44.69992
 2018-Oct-27 15:50 Nm  18 18 37.842393 -22 46 44.68017
 2018-Oct-27 15:51 Nm  18 18 37.855910 -22 46 44.66042
 2018-Oct-27 15:52 Nm  18 18 37.869428 -22 46 44.64068
 2018-Oct-27 15:53 Nm  18 18 37.882946 -22 46 44.62095
 2018-Oct-27 15:54 Nm  18 18 37.896464 -22 46 44.60122
 2018-Oct-27 15:55 Nm  18 18 37.909984 -22 46 44.58150
 2018-Oct-27 15:56 Nm  18 18 37.923503 -22 46 44.56178
 2018-Oct-27 15:57 Nm  18 18 37.937023 -22 46 44.54207
 2018-Oct-27 15:58 Nm  18 18 37.950544 -22 46 44.52236
 2018-Oct-27 15:59 Cm  18 18 37.964065 -22 46 44.50266
 2018-Oct-27 16:00 Cm  18 18 37.977587 -22 46 44.48297
 2018-Oct-27 16:01 Cm  18 18 37.991109 -22 46 44.46327
 2018-Oct-27 16:02 Cm  18 18 38.004632 -22 46 44.44359
 2018-Oct-27 16:03 Cm  18 18 38.018155 -22 46 44.42391
 2018-Oct-27 16:04 Cm  18 18 38.031678 -22 46 44.40423
 2018-Oct-27 16:05 Cm  18 18 38.045202 -22 46 44.38456
 2018-Oct-27 16:06 Cm  18 18 38.058727 -22 46 44.36489
 2018-Oct-27 16:07 Cm  18 18 38.072251 -22 46 44.34523
 2018-Oct-27 16:08 Cm  18 18 38.085777 -22 46 44.32558
 2018-Oct-27 16:09 Cm  18 18 38.099303 -22 46 44.30593
 2018-Oct-27 16:10 Cm  18 18 38.112829 -22 46 44.28628
 2018-Oct-27 16:11 Cm  18 18 38.126355 -22 46 44.26664
